[{"OBJECT_NAME":"QIANFAN-76","OBJECT_ID":"2025-046D","EPOCH":"2026-03-09T21:26:35.979072","MEAN_MOTION":13.51000746,"ECCENTRICITY":0.00119568,"INCLINATION":88.9752,"RA_OF_ASC_NODE":311.1248,"ARG_OF_PERICENTER":232.8157,"MEAN_ANOMALY":127.1903,"EPHEMERIS_TYPE":0,"CLASSIFICATION_TYPE":"U","NORAD_CAT_ID":63162,"ELEMENT_SET_NO":999,"REV_AT_EPOCH":5912,"BSTAR":0.00018455732,"MEAN_MOTION_DOT":1.31e-6,"MEAN_MOTION_DDOT":0},{"OBJECT_NAME":"SCOUT A R\/B","OBJECT_ID":"1967-034B","EPOCH":"2026-03-09T21:45:42.772320","MEAN_MOTION":13.54008679,"ECCENTRICITY":0.00235692,"INCLINATION":90.2658,"RA_OF_ASC_NODE":53.3823,"ARG_OF_PERICENTER":282.465,"MEAN_ANOMALY":136.1318,"EPHEMERIS_TYPE":0,"CLASSIFICATION_TYPE":"U","NORAD_CAT_ID":2755,"ELEMENT_SET_NO":999,"REV_AT_EPOCH":90860,"BSTAR":-5.5172606e-5,"MEAN_MOTION_DOT":-2.9e-7,"MEAN_MOTION_DDOT":0}]
